IRIDIUM 5 [-]           
1 24795U 97020D   23277.76600560  .00008776  00000+0  89050-3 0  9998
2 24795  86.4002   7.6951 0128406 190.2478 169.6126 14.84714970392986
IRIDIUM 4 [-]           
1 24796U 97020E   23277.94363474  .00000815  00000+0  27498-3 0  9993
2 24796  86.3916  74.3905 0002270  89.7348 270.4109 14.35822115383291
IRIDIUM 914 [-]         
1 24836U 97030A   23278.16971603  .00001111  00000+0  34943-3 0  9996
2 24836  86.3880  84.7180 0003985  97.8296 262.3355 14.39618724379844
IRIDIUM 16 [-]          
1 24841U 97030F   23277.90897750  .00000814  00000+0  26533-3 0  9998
2 24841  86.3981 106.1619 0001365  16.7251 343.3992 14.37511913377710
IRIDIUM 911 [-]         
1 24842U 97030G   23277.90236585  .00001066  00000+0  29346-3 0  9997
2 24842  86.4408 105.5023 0014901  15.7292 344.4370 14.46028318385254
IRIDIUM 17 [-]          
1 24870U 97034B   23277.85565350  .00000687  00000+0  22706-3 0  9992
2 24870  86.3959 135.8523 0000678 132.1738 227.9517 14.36613094374347
IRIDIUM 920 [-]         
1 24871U 97034C   23277.83138037  .00000715  00000+0  21939-3 0  9998
2 24871  86.3935 116.5455 0010826 340.6632  19.4155 14.40326492377104
